[{"OBJECT_NAME":"IRIDIUM 177","OBJECT_ID":"2023-068T","EPOCH":"2026-03-09T21:08:04.695360","MEAN_MOTION":14.80207725,"ECCENTRICITY":0.00023207,"INCLINATION":86.2006,"RA_OF_ASC_NODE":15.9326,"ARG_OF_PERICENTER":75.4952,"MEAN_ANOMALY":284.6526,"EPHEMERIS_TYPE":0,"CLASSIFICATION_TYPE":"U","NORAD_CAT_ID":56727,"ELEMENT_SET_NO":999,"REV_AT_EPOCH":15167,"BSTAR":0.00019232012,"MEAN_MOTION_DOT":1.487e-5,"MEAN_MOTION_DDOT":0},{"OBJECT_NAME":"CZ-6A DEB","OBJECT_ID":"2024-140FE","EPOCH":"2026-03-09T12:44:00.072960","MEAN_MOTION":14.75892288,"ECCENTRICITY":0.00823997,"INCLINATION":88.9673,"RA_OF_ASC_NODE":278.9407,"ARG_OF_PERICENTER":207.8598,"MEAN_ANOMALY":151.82,"EPHEMERIS_TYPE":0,"CLASSIFICATION_TYPE":"U","NORAD_CAT_ID":60779,"ELEMENT_SET_NO":999,"REV_AT_EPOCH":8381,"BSTAR":0.0021734931,"MEAN_MOTION_DOT":0.00015813,"MEAN_MOTION_DDOT":0}]
